AUXTIXI   00    BHZ ? P      ? 20160909 0036 13.6636 GAU  0.00e+00  0.00e+00  0.00e+00  0.00e+00  1.00e+00
PRIZAA0B  00    BHZ ? P      ? 20160909 0036 27.3760 GAU  0.00e+00  0.00e+00  0.00e+00  0.00e+00  1.00e+00
PRIMK31   00    BHZ ? P      ? 20160909 0036 43.8932 GAU  0.00e+00  0.00e+00  0.00e+00  0.00e+00  1.00e+00
PRICM31   00    BHZ ? P      ? 20160909 0036 49.3519 GAU  0.00e+00  0.00e+00  0.00e+00  0.00e+00  1.00e+00
AUXAAK    00    BHZ ? P      ? 20160909 0037 37.9001 GAU  0.00e+00  0.00e+00  0.00e+00  0.00e+00  1.00e+00
AUXARU    00    BHZ ? P      ? 20160909 0038 30.3189 GAU  0.00e+00  0.00e+00  0.00e+00  0.00e+00  1.00e+00
AUXPSI    00    BHZ ? P      ? 20160909 0038 33.0562 GAU  0.00e+00  0.00e+00  0.00e+00  0.00e+00  1.00e+00
AUXAKTO   00    BHZ ? P      ? 20160909 0038 44.8315 GAU  0.00e+00  0.00e+00  0.00e+00  0.00e+00  1.00e+00
AUXKDAK   00    BHZ ? P      ? 20160909 0038 59.5534 GAU  0.00e+00  0.00e+00  0.00e+00  0.00e+00  1.00e+00
AUXKIRV   00    BHZ ? P      ? 20160909 0039  3.1405 GAU  0.00e+00  0.00e+00  0.00e+00  0.00e+00  1.00e+00
PRIIL31   00    BHZ ? P      ? 20160909 0039  4.8656 GAU  0.00e+00  0.00e+00  0.00e+00  0.00e+00  1.00e+00
AUXBATI   00    BHZ ? P      ? 20160909 0039  7.5910 GAU  0.00e+00  0.00e+00  0.00e+00  0.00e+00  1.00e+00
PRIGYA0B  00    BHZ ? P      ? 20160909 0039 22.6746 GAU  0.00e+00  0.00e+00  0.00e+00  0.00e+00  1.00e+00
AUXBELG   00    BHZ ? P      ? 20160909 0039 26.2664 GAU  0.00e+00  0.00e+00  0.00e+00  0.00e+00  1.00e+00
AUXINK    00    BHZ ? P      ? 20160909 0039 32.9417 GAU  0.00e+00  0.00e+00  0.00e+00  0.00e+00  1.00e+00
AUXFITZ   00    BHZ ? P      ? 20160909 0040  3.1098 GAU  0.00e+00  0.00e+00  0.00e+00  0.00e+00  1.00e+00
AUXRES    00    BHZ ? P      ? 20160909 0040 12.5850 GAU  0.00e+00  0.00e+00  0.00e+00  0.00e+00  1.00e+00
AUXDLBC   00    BHZ ? P      ? 20160909 0040 17.5433 GAU  0.00e+00  0.00e+00  0.00e+00  0.00e+00  1.00e+00
AUXCTA    00    BHZ ? P      ? 20160909 0040 30.0359 GAU  0.00e+00  0.00e+00  0.00e+00  0.00e+00  1.00e+00
PRIAKBB   00    BHZ ? P      ? 20160909 0040 40.1694 GAU  0.00e+00  0.00e+00  0.00e+00  0.00e+00  1.00e+00
PRIAS31   00    BHZ ? P      ? 20160909 0040 40.7364 GAU  0.00e+00  0.00e+00  0.00e+00  0.00e+00  1.00e+00
AUXHFC2   00    HHZ ? P      ? 20160909 0040 46.9938 GAU  0.00e+00  0.00e+00  0.00e+00  0.00e+00  1.00e+00
PRINB200  00    BHZ ? P      ? 20160909 0040 49.1449 GAU  0.00e+00  0.00e+00  0.00e+00  0.00e+00  1.00e+00
PRIBR131  00    BHZ ? P      ? 20160909 0041  5.7288 GAU  0.00e+00  0.00e+00  0.00e+00  0.00e+00  1.00e+00
AUXMLR    00    BHZ ? P      ? 20160909 0041 12.1190 GAU  0.00e+00  0.00e+00  0.00e+00  0.00e+00  1.00e+00
AUXASF    00    BHZ ? P      ? 20160909 0041 21.1711 GAU  0.00e+00  0.00e+00  0.00e+00  0.00e+00  1.00e+00
AUXSFJD   00    BHZ ? P      ? 20160909 0041 24.8426 GAU  0.00e+00  0.00e+00  0.00e+00  0.00e+00  1.00e+00
AUXVRAC   00    BHZ ? P      ? 20160909 0041 26.8445 GAU  0.00e+00  0.00e+00  0.00e+00  0.00e+00  1.00e+00
AUXDZM    00    BHZ ? P      ? 20160909 0041 27.7030 GAU  0.00e+00  0.00e+00  0.00e+00  0.00e+00  1.00e+00
AUXNEW    00    BHZ ? P      ? 20160909 0041 34.6679 GAU  0.00e+00  0.00e+00  0.00e+00  0.00e+00  1.00e+00
PRIGEC2A  00    HHZ ? P      ? 20160909 0041 36.1789 GAU  0.00e+00  0.00e+00  0.00e+00  0.00e+00  1.00e+00
AUXMSVF   00    BHZ ? P      ? 20160909 0041 41.9932 GAU  0.00e+00  0.00e+00  0.00e+00  0.00e+00  1.00e+00
AUXFRB    00    BHZ ? P      ? 20160909 0041 39.1302 GAU  0.00e+00  0.00e+00  0.00e+00  0.00e+00  1.00e+00
AUXNWAO   00    BHZ ? P      ? 20160909 0041 41.2139 GAU  0.00e+00  0.00e+00  0.00e+00  0.00e+00  1.00e+00
AUXEKB    00    BHZ ? P      ? 20160909 0041 46.3137 GAU  0.00e+00  0.00e+00  0.00e+00  0.00e+00  1.00e+00
AUXIDI    00    HHZ ? P      ? 20160909 0041 52.7731 GAU  0.00e+00  0.00e+00  0.00e+00  0.00e+00  1.00e+00
AUXDAVOX  00    HHZ ? P      ? 20160909 0041 55.1467 GAU  0.00e+00  0.00e+00  0.00e+00  0.00e+00  1.00e+00
AUXELK    00    BHZ ? P      ? 20160909 0042 11.0087 GAU  0.00e+00  0.00e+00  0.00e+00  0.00e+00  1.00e+00
PRINV31   00    BHZ ? P      ? 20160909 0042 11.8063 GAU  0.00e+00  0.00e+00  0.00e+00  0.00e+00  1.00e+00
PRIULM    00    BHZ ? P      ? 20160909 0042 14.3899 GAU  0.00e+00  0.00e+00  0.00e+00  0.00e+00  1.00e+00
PRIPD31   00    BHZ ? P      ? 20160909 0042 17.8399 GAU  0.00e+00  0.00e+00  0.00e+00  0.00e+00  1.00e+00
PRISCHQ   00    BHZ ? P      ? 20160909 0042 28.3904 GAU  0.00e+00  0.00e+00  0.00e+00  0.00e+00  1.00e+00
AUXPFO    00    BHZ ? P      ? 20160909 0042 34.4972 GAU  0.00e+00  0.00e+00  0.00e+00  0.00e+00  1.00e+00
AUXANMO   00    BHZ ? P      ? 20160909 0042 56.1815 GAU  0.00e+00  0.00e+00  0.00e+00  0.00e+00  1.00e+00
PRIESBB   00    BHZ ? P      ? 20160909 0042 54.8832 GAU  0.00e+00  0.00e+00  0.00e+00  0.00e+00  1.00e+00
AUXKURBB  00    BHZ ? P      ? 20160909 0037  1.2856 GAU  0.00e+00  0.00e+00  0.00e+00  0.00e+00  1.00e+00
AUXBVA0   00    BHZ ? P      ? 20160909 0037 41.2040 GAU  0.00e+00  0.00e+00  0.00e+00  0.00e+00  1.00e+00
